KUIPER-00232            
1 67148U 25301R   26019.25002315  .00079030  00000+0  21320-2 0  9991
2 67148  51.8738 303.8969 0002911 106.1244  17.8300 15.37086016  5864
KUIPER-00241            
1 67149U 25301S   26019.17146148  .00034737  00000+0  95276-3 0  9993
2 67149  51.8743 304.3745 0002175 153.3338 206.7761 15.36948136  6454
KUIPER-00245            
1 67150U 25301T   26019.25002315 -.01889315  00000+0 -10375+0 0  9997
2 67150  51.8825 305.1625 0008687 208.6520 330.7473 15.17025669  5615
KUIPER-00246            
1 67151U 25301U   26019.04738145  .00021651  00000+0  60218-3 0  9995
2 67151  51.8744 305.0408 0003854 184.7491 175.3460 15.36771918  6128
KUIPER-00247            
1 67152U 25301V   26019.09118787  .00033824  00000+0  99701-3 0  9999
2 67152  51.8644 305.3030 0011186 234.1671 125.8276 15.34651745  6105
KUIPER-00248            
1 67153U 25301W   26019.20580061  .00034092  00000+0  99124-3 0  9998
2 67153  51.8678 304.5882 0009215 214.1049 145.9346 15.35099119  6299
KUIPER-00249            
1 67154U 25301X   26019.19960019  .00050784  00000+0  14311-2 0  9992
2 67154  51.8673 304.5431 0008580 217.3005 142.7386 15.35900096  6122
KUIPER-00250            
1 67155U 25301Y   26019.05822406  .00029887  00000+0  83518-3 0  9991
2 67155  51.8725 305.1096 0006837 201.2788 158.7915 15.36425708  6137
